[{"OBJECT_NAME":"SHIJIAN-6 05A (SJ-6 05A)","OBJECT_ID":"2021-122A","EPOCH":"2026-03-09T21:12:10.842048","MEAN_MOTION":14.99085264,"ECCENTRICITY":0.0003221,"INCLINATION":97.4012,"RA_OF_ASC_NODE":42.3306,"ARG_OF_PERICENTER":76.6317,"MEAN_ANOMALY":283.5266,"EPHEMERIS_TYPE":0,"CLASSIFICATION_TYPE":"U","NORAD_CAT_ID":49961,"ELEMENT_SET_NO":999,"REV_AT_EPOCH":23387,"BSTAR":0.00027617,"MEAN_MOTION_DOT":3.299e-5,"MEAN_MOTION_DDOT":0},{"OBJECT_NAME":"STARLINK-5883","OBJECT_ID":"2023-037AU","EPOCH":"2026-03-09T22:35:03.083424","MEAN_MOTION":14.98329575,"ECCENTRICITY":0.00019122,"INCLINATION":69.9983,"RA_OF_ASC_NODE":263.7076,"ARG_OF_PERICENTER":275.3776,"MEAN_ANOMALY":84.7165,"EPHEMERIS_TYPE":0,"CLASSIFICATION_TYPE":"U","NORAD_CAT_ID":55956,"ELEMENT_SET_NO":999,"REV_AT_EPOCH":16451,"BSTAR":4.036548e-6,"MEAN_MOTION_DOT":-4.5e-7,"MEAN_MOTION_DDOT":0}]
